CTC1_L_00458001-01
1 19669U 26383RM  26037.47806713  .00000000  00000+0  00000-0 0  9996
2 19669  35.0000   0.0000 0000000   0.0000   0.0000 15.05490494    13
CTC1_L_00458002-01
1 19670U 22618LG  26037.47806713  .00000000  00000+0  00000-0 0  9995
2 19670  35.0000  12.0000 0000000   0.0000  48.0000 15.05490494    10
CTC1_L_00458003-01
1 19671U 24162ER  26037.47806713  .00000000  00000+0  00000-0 0  9992
2 19671  35.0000  24.0000 0000000   0.0000  96.0000 15.05490494    17
CTC1_L_00458004-01
1 19672U 23325GK  26037.47806713  .00000000  00000+0  00000-0 0  9993
2 19672  35.0000  36.0000 0000000   0.0000 144.0000 15.05490494    15
CTC1_L_00458005-01
1 19673U 23944NP  26037.47806713  .00000000  00000+0  00000-0 0  9991
2 19673  35.0000  48.0000 0000000   0.0000 192.0000 15.05490494    12
CTC1_L_00458006-01
1 19674U 24736NQ  26037.47806713  .00000000  00000+0  00000-0 0  9992
2 19674  35.0000  60.0000 0000000   0.0000 240.0000 15.05490494    11
CTC1_L_00458007-01
1 19675U 22429LS  26037.47806713  .00000000  00000+0  00000-0 0  9990
2 19675  35.0000  72.0000 0000000   0.0000 288.0000 15.05490494    17
CTC1_L_00458008-01
1 19676U 23629AX  26037.47806713  .00000000  00000+0  00000-0 0  9994
2 19676  35.0000  84.0000 0000000   0.0000 336.0000 15.05490494    15
CTC1_L_00458009-01
1 19677U 25572AS  26037.47806713  .00000000  00000+0  00000-0 0  9994
2 19677  35.0000  96.0000 0000000   0.0000  24.0000 15.05490494    13
CTC1_L_00458010-01
1 19678U 25911OQ  26037.47806713  .00000000  00000+0  00000-0 0  9992
2 19678  35.0000 108.0000 0000000   0.0000  72.0000 15.05490494    11
CTC1_L_00458011-01
1 19679U 23416WT  26037.47806713  .00000000  00000+0  00000-0 0  9991
2 19679  35.0000 120.0000 0000000   0.0000 120.0000 15.05490494    10
CTC1_L_00458012-01
1 19680U 25991BD  26037.47806713  .00000000  00000+0  00000-0 0  9993
2 19680  35.0000 132.0000 0000000   0.0000 168.0000 15.05490494    17
CTC1_L_00458013-01
1 19681U 23670IR  26037.47806713  .00000000  00000+0  00000-0 0  9996
2 19681  35.0000 144.0000 0000000   0.0000 216.0000 15.05490494    15
CTC1_L_00458014-01
1 19682U 25465UE  26037.47806713  .00000000  00000+0  00000-0 0  9991
2 19682  35.0000 156.0000 0000000   0.0000 264.0000 15.05490494    12
CTC1_L_00458015-01
1 19683U 26195UD  26037.47806713  .00000000  00000+0  00000-0 0  9993
2 19683  35.0000 168.0000 0000000   0.0000 312.0000 15.05490494    10
CTC1_L_00458016-01
1 19684U 22611BD  26037.47806713  .00000000  00000+0  00000-0 0  9993
2 19684  35.0000 180.0000 0000000   0.0000   0.0000 15.05490494    19
CTC1_L_00458017-01
1 19685U 22340O   26037.47806713  .00000000  00000+0  00000-0 0  9993
2 19685  35.0000 192.0000 0000000   0.0000  48.0000 15.05490494    15
CTC1_L_00458018-01
1 19686U 24377VM  26037.47806713  .00000000  00000+0  00000-0 0  9996
2 19686  35.0000 204.0000 0000000   0.0000  96.0000 15.05490494    13
CTC1_L_00458019-01
1 19687U 24375UJ  26037.47806713  .00000000  00000+0  00000-0 0  9995
2 19687  35.0000 216.0000 0000000   0.0000 144.0000 15.05490494    11
CTC1_L_00458020-01
1 19688U 24815JX  26037.47806713  .00000000  00000+0  00000-0 0  9995
2 19688  35.0000 228.0000 0000000   0.0000 192.0000 15.05490494    18
CTC1_L_00458021-01
1 19689U 23685AW  26037.47806713  .00000000  00000+0  00000-0 0  9990
2 19689  35.0000 240.0000 0000000   0.0000 240.0000 15.05490494    17
CTC1_L_00458022-01
1 19690U 22079D   26037.47806713  .00000000  00000+0  00000-0 0  9998
2 19690  35.0000 252.0000 0000000   0.0000 288.0000 15.05490494    14
CTC1_L_00458023-01
1 19691U 25008DY  26037.47806713  .00000000  00000+0  00000-0 0  9994
2 19691  35.0000 264.0000 0000000   0.0000 336.0000 15.05490494    12
CTC1_L_00458024-01
1 19692U 22052S   26037.47806713  .00000000  00000+0  00000-0 0  9991
2 19692  35.0000 276.0000 0000000   0.0000  24.0000 15.05490494    10
CTC1_L_00458025-01
1 19693U 26634RA  26037.47806713  .00000000  00000+0  00000-0 0  9992
2 19693  35.0000 288.0000 0000000   0.0000  72.0000 15.05490494    17
CTC1_L_00458026-01
1 19694U 26011XK  26037.47806713  .00000000  00000+0  00000-0 0  9992
2 19694  35.0000 300.0000 0000000   0.0000 120.0000 15.05490494    17
CTC1_L_00458027-01
1 19695U 23692MR  26037.47806713  .00000000  00000+0  00000-0 0  9995
2 19695  35.0000 312.0000 0000000   0.0000 168.0000 15.05490494    13
CTC1_L_00458028-01
1 19696U 24102RF  26037.47806713  .00000000  00000+0  00000-0 0  9993
2 19696  35.0000 324.0000 0000000   0.0000 216.0000 15.05490494    11
CTC1_L_00458029-01
1 19697U 26917AZ  26037.47806713  .00000000  00000+0  00000-0 0  9990
2 19697  35.0000 336.0000 0000000   0.0000 264.0000 15.05490494    18
CTC1_L_00458030-01
1 19698U 26842LR  26037.47806713  .00000000  00000+0  00000-0 0  9998
2 19698  35.0000 348.0000 0000000   0.0000 312.0000 15.05490494    16
